ONEWEB-0379             
1 49305U 21090AC  24273.80638487 -.00000317  00000+0 -88924-3 0  9991
2 49305  87.8974  54.0643 0001628 101.0066 259.1247 13.14502634145402
ONEWEB-0380             
1 49306U 21090AD  24273.69659040  .00000155  00000+0  35369-3 0  9990
2 49306  87.9117  69.3745 0001714  92.8103 267.3225 13.19725538143927
ONEWEB-0381             
1 49307U 21090AE  24273.86179396  .00000047  00000+0  83931-4 0  9990
2 49307  87.9263  38.8193 0001722  92.9502 267.1829 13.20771242147287
ONEWEB-0382             
1 49308U 21090AF  24273.77341413  .00000062  00000+0  12135-3 0  9996
2 49308  87.9261  38.8330 0001351 104.4863 255.6420 13.20771772147261
ONEWEB-0383             
1 49309U 21090AG  24273.41943119 -.00000128  00000+0 -38059-3 0  9997
2 49309  87.8970  54.1275 0001500 102.5293 257.6005 13.14500780145383
ONEWEB-0384             
1 49310U 21090AH  24273.77022067  .00000246  00000+0  57268-3 0  9990
2 49310  87.9264  38.8467 0001199 105.7393 254.3873 13.20768963147277
ONEWEB-0385             
1 49311U 21090AJ  24273.76550942  .00000058  00000+0  11182-3 0  9994
2 49311  87.9264  38.8488 0001409  98.8876 261.2417 13.20772663147243
ONEWEB-0386             
1 49312U 21090AK  24273.85862291  .00000005  00000+0 -20183-4 0  9993
2 49312  87.9257  38.8181 0001423  98.6759 261.4535 13.20772089147278
